[{"OBJECT_NAME":"TRANSPORTER-12 OBJECT AZ","OBJECT_ID":"2025-009AZ","EPOCH":"2026-03-09T17:02:46.667040","MEAN_MOTION":15.30349724,"ECCENTRICITY":9.87e-5,"INCLINATION":97.3981,"RA_OF_ASC_NODE":151.9913,"ARG_OF_PERICENTER":45.3581,"MEAN_ANOMALY":314.774,"EPHEMERIS_TYPE":0,"CLASSIFICATION_TYPE":"U","NORAD_CAT_ID":62656,"ELEMENT_SET_NO":999,"REV_AT_EPOCH":6379,"BSTAR":0.00054902545,"MEAN_MOTION_DOT":0.00016057,"MEAN_MOTION_DDOT":0},{"OBJECT_NAME":"STARLINK-32899","OBJECT_ID":"2025-031P","EPOCH":"2026-03-09T04:26:53.229120","MEAN_MOTION":15.27602946,"ECCENTRICITY":0.00037423,"INCLINATION":42.9974,"RA_OF_ASC_NODE":146.5747,"ARG_OF_PERICENTER":291.0708,"MEAN_ANOMALY":68.9743,"EPHEMERIS_TYPE":0,"CLASSIFICATION_TYPE":"U","NORAD_CAT_ID":62994,"ELEMENT_SET_NO":999,"REV_AT_EPOCH":6101,"BSTAR":0.0010440031,"MEAN_MOTION_DOT":0.00028602,"MEAN_MOTION_DDOT":0}]
